{
  "type": "FeatureCollection",
  "features": [
    {
      "type": "Feature",
      "properties": {
        "norad_id": 66809,
        "name": "STARLINK-35979",
        "group": "last-30-days",
        "lat": 33.37774263223437,
        "lon": -62.191066991053845,
        "alt_km": 302.4429964022893,
        "timestamp": "2025-12-12T14:39:16.772654+00:00",
        "meta_object_name": "STARLINK-35979",
        "meta_object_id": "2025-278U",
        "meta_epoch": "2025-12-12T05:22:35.252832",
        "meta_mean_motion": 15.88916508,
        "meta_eccentricity": 0.00022266,
        "meta_inclination": 42.9973,
        "meta_ra_of_asc_node": 255.2043,
        "meta_arg_of_pericenter": 266.91,
        "meta_mean_anomaly": 93.152,
        "meta_ephemeris_type": 0,
        "meta_classification_type": "U",
        "meta_norad_cat_id": 66809,
        "meta_element_set_no": 999,
        "meta_rev_at_epoch": 175,
        "meta_bstar": -0.0019199096,
        "meta_mean_motion_dot": -0.00533324,
        "meta_mean_motion_ddot": 0,
        "tle_line1": "1 66809U 25278U   25346.22401913 -.00533324  00000+0 -19199-2 0  9997",
        "tle_line2": "2 66809  42.9973 255.2043 0002226 266.9100  93.1520 15.88916508  1756"
      },
      "geometry": {
        "type": "Point",
        "coordinates": [
          -62.191066991053845,
          33.37774263223437
        ]
      }
    },
    {
      "type": "Feature",
      "properties": {
        "norad_id": 66810,
        "name": "STARLINK-36046",
        "group": "last-30-days",
        "lat": 30.852267841781853,
        "lon": -67.30119871208419,
        "alt_km": 302.5894356647186,
        "timestamp": "2025-12-12T14:39:16.772663+00:00",
        "meta_object_name": "STARLINK-36046",
        "meta_object_id": "2025-278V",
        "meta_epoch": "2025-12-12T05:23:50.616960",
        "meta_mean_motion": 15.88887476,
        "meta_eccentricity": 0.00021298,
        "meta_inclination": 42.9975,
        "meta_ra_of_asc_node": 255.2121,
        "meta_arg_of_pericenter": 274.4201,
        "meta_mean_anomaly": 85.6429,
        "meta_ephemeris_type": 0,
        "meta_classification_type": "U",
        "meta_norad_cat_id": 66810,
        "meta_element_set_no": 999,
        "meta_rev_at_epoch": 175,
        "meta_bstar": -0.0018180189,
        "meta_mean_motion_dot": -0.00505822,
        "meta_mean_motion_ddot": 0,
        "tle_line1": "1 66810U 25278V   25346.22489140 -.00505822  00000+0 -18180-2 0  9998",
        "tle_line2": "2 66810  42.9975 255.2121 0002129 274.4201  85.6429 15.88887476  1750"
      },
      "geometry": {
        "type": "Point",
        "coordinates": [
          -67.30119871208419,
          30.852267841781853
        ]
      }
    },
    {
      "type": "Feature",
      "properties": {
        "norad_id": 66811,
        "name": "STARLINK-36045",
        "group": "last-30-days",
        "lat": 32.282676162443614,
        "lon": -64.49378910428821,
        "alt_km": 300.3436377074768,
        "timestamp": "2025-12-12T14:39:16.772673+00:00",
        "meta_object_name": "STARLINK-36045",
        "meta_object_id": "2025-278W",
        "meta_epoch": "2025-12-12T05:23:11.380128",
        "meta_mean_motion": 15.88963979,
        "meta_eccentricity": 0.00022051,
        "meta_inclination": 42.9974,
        "meta_ra_of_asc_node": 255.2078,
        "meta_arg_of_pericenter": 339.2321,
        "meta_mean_anomaly": 20.8464,
        "meta_ephemeris_type": 0,
        "meta_classification_type": "U",
        "meta_norad_cat_id": 66811,
        "meta_element_set_no": 999,
        "meta_rev_at_epoch": 175,
        "meta_bstar": -0.0014178977,
        "meta_mean_motion_dot": -0.0040078,
        "meta_mean_motion_ddot": 0,
        "tle_line1": "1 66811U 25278W   25346.22443727 -.00400780  00000+0 -14179-2 0  9991",
        "tle_line2": "2 66811  42.9974 255.2078 0002205 339.2321  20.8464 15.88963979  1752"
      },
      "geometry": {
        "type": "Point",
        "coordinates": [
          -64.49378910428821,
          32.282676162443614
        ]
      }
    },
    {
      "type": "Feature",
      "properties": {
        "norad_id": 66812,
        "name": "STARLINK-36054",
        "group": "last-30-days",
        "lat": 34.404987050939226,
        "lon": -59.8872109005294,
        "alt_km": 302.15262202512076,
        "timestamp": "2025-12-12T14:39:16.772682+00:00",
        "meta_object_name": "STARLINK-36054",
        "meta_object_id": "2025-278X",
        "meta_epoch": "2025-12-12T05:22:03.449856",
        "meta_mean_motion": 15.88954526,
        "meta_eccentricity": 0.00023043,
        "meta_inclination": 42.9975,
        "meta_ra_of_asc_node": 255.201,
        "meta_arg_of_pericenter": 269.7066,
        "meta_mean_anomaly": 90.3544,
        "meta_ephemeris_type": 0,
        "meta_classification_type": "U",
        "meta_norad_cat_id": 66812,
        "meta_element_set_no": 999,
        "meta_rev_at_epoch": 175,
        "meta_bstar": -0.0018403907,
        "meta_mean_motion_dot": -0.00513387,
        "meta_mean_motion_ddot": 0,
        "tle_line1": "1 66812U 25278X   25346.22365104 -.00513387  00000+0 -18404-2 0  9997",
        "tle_line2": "2 66812  42.9975 255.2010 0002304 269.7066  90.3544 15.88954526  1752"
      },
      "geometry": {
        "type": "Point",
        "coordinates": [
          -59.8872109005294,
          34.404987050939226
        ]
      }
    },
    {
      "type": "Feature",
      "properties": {
        "norad_id": 66813,
        "name": "STARLINK-36042",
        "group": "last-30-days",
        "lat": 35.5509058088476,
        "lon": -57.11722987484424,
        "alt_km": 300.7146869724329,
        "timestamp": "2025-12-12T14:39:16.772692+00:00",
        "meta_object_name": "STARLINK-36042",
        "meta_object_id": "2025-278Y",
        "meta_epoch": "2025-12-12T05:21:32.806368",
        "meta_mean_motion": 15.89186521,
        "meta_eccentricity": 0.00024837,
        "meta_inclination": 42.9974,
        "meta_ra_of_asc_node": 255.1984,
        "meta_arg_of_pericenter": 266.4093,
        "meta_mean_anomaly": 93.6497,
        "meta_ephemeris_type": 0,
        "meta_classification_type": "U",
        "meta_norad_cat_id": 66813,
        "meta_element_set_no": 999,
        "meta_rev_at_epoch": 175,
        "meta_bstar": -0.00061702862,
        "meta_mean_motion_dot": -0.00181064,
        "meta_mean_motion_ddot": 0,
        "tle_line1": "1 66813U 25278Y   25346.22329637 -.00181064  00000+0 -61703-3 0  9993",
        "tle_line2": "2 66813  42.9974 255.1984 0002483 266.4093  93.6497 15.89186521  1759"
      },
      "geometry": {
        "type": "Point",
        "coordinates": [
          -57.11722987484424,
          35.5509058088476
        ]
      }
    },
    {
      "type": "Feature",
      "properties": {
        "norad_id": 66814,
        "name": "STARLINK-35984",
        "group": "last-30-days",
        "lat": 40.97233015956716,
        "lon": -38.481525022953065,
        "alt_km": 299.71612118413395,
        "timestamp": "2025-12-12T14:39:16.772704+00:00",
        "meta_object_name": "STARLINK-35984",
        "meta_object_id": "2025-278Z",
        "meta_epoch": "2025-12-12T05:17:39.039072",
        "meta_mean_motion": 15.89263924,
        "meta_eccentricity": 0.00022268,
        "meta_inclination": 42.9971,
        "meta_ra_of_asc_node": 255.1754,
        "meta_arg_of_pericenter": 272.7868,
        "meta_mean_anomaly": 87.2751,
        "meta_ephemeris_type": 0,
        "meta_classification_type": "U",
        "meta_norad_cat_id": 66814,
        "meta_element_set_no": 999,
        "meta_rev_at_epoch": 175,
        "meta_bstar": -0.00078876214,
        "meta_mean_motion_dot": -0.00230906,
        "meta_mean_motion_ddot": 0,
        "tle_line1": "1 66814U 25278Z   25346.22059073 -.00230906  00000+0 -78876-3 0  9997",
        "tle_line2": "2 66814  42.9971 255.1754 0002226 272.7868  87.2751 15.89263924  1752"
      },
      "geometry": {
        "type": "Point",
        "coordinates": [
          -38.481525022953065,
          40.97233015956716
        ]
      }
    },
    {
      "type": "Feature",
      "properties": {
        "norad_id": 66815,
        "name": "STARLINK-35985",
        "group": "last-30-days",
        "lat": 40.447171546504414,
        "lon": -41.041501963308455,
        "alt_km": 299.75586634933825,
        "timestamp": "2025-12-12T14:39:16.772732+00:00",
        "meta_object_name": "STARLINK-35985",
        "meta_object_id": "2025-278AA",
        "meta_epoch": "2025-12-12T05:18:09.877824",
        "meta_mean_motion": 15.89266535,
        "meta_eccentricity": 0.00024111,
        "meta_inclination": 42.9977,
        "meta_ra_of_asc_node": 255.1773,
        "meta_arg_of_pericenter": 272.8326,
        "meta_mean_anomaly": 87.2272,
        "meta_ephemeris_type": 0,
        "meta_classification_type": "U",
        "meta_norad_cat_id": 66815,
        "meta_element_set_no": 999,
        "meta_rev_at_epoch": 296,
        "meta_bstar": -0.00059966213,
        "meta_mean_motion_dot": -0.00176778,
        "meta_mean_motion_ddot": 0,
        "tle_line1": "1 66815U 25278AA  25346.22094766 -.00176778  00000+0 -59966-3 0  9991",
        "tle_line2": "2 66815  42.9977 255.1773 0002411 272.8326  87.2272 15.89266535  2969"
      },
      "geometry": {
        "type": "Point",
        "coordinates": [
          -41.041501963308455,
          40.447171546504414
        ]
      }
    }
  ]
}